     2.100          NAVIGATION                              RINEX VERSION / TYPE
fic2rin                                 08/28/2017 00:10:40 PGM / RUN BY / DATE
                                                            END OF HEADER
 7 17  8 27 18  0  0.0  .310284551233D-03 -.477484718431D-11  .000000000000D+00
     .320000000000D+02  .602187500000D+02  .462697844651D-08  .188881128274D+01
     .305473804474D-05  .110103567131D-01  .588782131672D-05  .515372392845D+04
     .648000000000D+05 -.199303030968D-06 -.987093691134D+00  .186264514923D-08
     .961139182276D+00  .268437500000D+03 -.256640309518D+01 -.828034490960D-08
     .314298806093D-10  .100000000000D+01  .196400000000D+04  .000000000000D+00
     .240000000000D+01  .000000000000D+00 -.111758708954D-07  .320000000000D+02
     .576060000000D+05  .400000000000D+01
 8 17  8 27 18  0  0.0 -.713937915862D-04 -.136424205266D-11  .000000000000D+00
     .990000000000D+02 -.140312500000D+02  .429196449183D-08 -.106412483780D+01
    -.990927219391D-06  .256386876572D-02  .968575477600D-05  .515368451691D+04
     .648000000000D+05 -.298023223877D-07  .107560749832D+01 -.372529029846D-07
     .967328087932D+00  .196812500000D+03 -.624659844870D+00 -.798068957061D-08
     .223937899341D-09  .100000000000D+01  .196400000000D+04  .000000000000D+00
     .340000000000D+01  .000000000000D+00  .558793544769D-08  .990000000000D+02
     .576060000000D+05  .400000000000D+01
10 17  8 27 18  0  0.0  .489787198603D-04  .103455022327D-10  .000000000000D+00
     .810000000000D+02 -.386875000000D+02  .476091259683D-08  .452212289074D+00
    -.204145908356D-05  .270349823404D-02  .736303627491D-05  .515367211342D+04
     .648000000000D+05 -.931322574615D-08 -.310494817954D+01 -.484287738800D-07
     .960659435847D+00  .234437500000D+03 -.282715757960D+01 -.821462788651D-08
    -.359657838335D-09  .100000000000D+01  .196400000000D+04  .000000000000D+00
     .240000000000D+01  .000000000000D+00  .186264514923D-08  .810000000000D+02
     .576060000000D+05  .400000000000D+01
11 17  8 27 18  0  0.0 -.711902976036D-03 -.250111042988D-11  .000000000000D+00
     .740000000000D+02  .906250000000D+01  .595917679506D-08  .191552684547D+01
     .268220901489D-06  .170683910837D-01  .688247382641D-05  .515372581863D+04
     .648000000000D+05  .288709998131D-06  .173067691305D+01 -.171363353729D-06
     .901759586135D+00  .211875000000D+03  .168400445887D+01 -.856535678149D-08
     .333585323739D-09  .100000000000D+01  .196400000000D+04  .000000000000D+00
     .240000000000D+01  .000000000000D+00 -.121071934700D-07  .740000000000D+02
     .576060000000D+05  .400000000000D+01
12 17  8 27 18  0  0.0  .374678522348D-03 -.125055521494D-11  .000000000000D+00
     .190000000000D+02 -.302812500000D+02  .391659171319D-08  .127308704829D+01
    -.173598527908D-05  .655400229152D-02  .610016286373D-05  .515372865105D+04
     .648000000000D+05 -.540167093277D-07  .989873760673D-01  .204890966415D-07
     .988959742623D+00  .275000000000D+03  .914824331111D+00 -.795461705602D-08
    -.165721188667D-09  .100000000000D+01  .196400000000D+04  .000000000000D+00
     .240000000000D+01  .000000000000D+00 -.125728547573D-07  .190000000000D+02
     .576060000000D+05  .400000000000D+01
13 17  8 27 18  0  0.0 -.903820618987D-04 -.682121026330D-12  .000000000000D+00
     .500000000000D+02  .369062500000D+02  .408124142866D-08  .307677883027D+01
     .206194818020D-05  .349749648012D-02  .103898346424D-04  .515369944954D+04
     .648000000000D+05 -.577419996262D-07 -.193828788901D+01 -.372529029846D-08
     .969058597135D+00  .184062500000D+03  .177086181708D+01 -.770924969262D-08
    -.932181686252D-10  .100000000000D+01  .196400000000D+04  .000000000000D+00
     .240000000000D+01  .000000000000D+00 -.111758708954D-07  .500000000000D+02
     .576060000000D+05  .400000000000D+01
14 17  8 27 18  0  0.0 -.820304267108D-04 -.102318153949D-11  .000000000000D+00
     .500000000000D+02  .443437500000D+02  .431910847963D-08 -.189156450627D+01
     .224821269512D-05  .935956719331D-02  .968202948570D-05  .515368862724D+04
     .648000000000D+05  .245869159698D-06 -.197837569625D+01 -.316649675369D-07
     .961609054008D+00  .196281250000D+03 -.194849583147D+01 -.777389524251D-08
    -.825034365993D-10  .100000000000D+01  .196400000000D+04  .000000000000D+00
     .240000000000D+01  .000000000000D+00 -.977888703346D-08  .500000000000D+02
     .576060000000D+05  .400000000000D+01
15 17  8 27 18  0  0.0 -.355175230652D-03 -.454747350886D-12  .000000000000D+00
     .420000000000D+02  .157500000000D+02  .507664003386D-08 -.242441377468D+01
     .804662704468D-06  .949385354761D-02  .994838774204D-05  .515360302162D+04
     .648000000000D+05  .186264514923D-08 -.212984902835D+01 -.800937414169D-07
     .928803351611D+00  .170625000000D+03  .593764450158D+00 -.815176812529D-08
    -.442875590403D-10  .100000000000D+01  .196400000000D+04  .000000000000D+00
     .240000000000D+01  .000000000000D+00 -.107102096081D-07  .420000000000D+02
     .576060000000D+05  .400000000000D+01
16 17  8 27 18  0  0.0  .368799082935D-04  .113686837722D-12  .000000000000D+00
     .770000000000D+02 -.356562500000D+02  .388051878204D-08 -.684071250702D+00
    -.167638063431D-05  .927905645221D-02  .663101673126D-05  .515375159073D+04
     .648000000000D+05  .132247805595D-06  .117848288786D+00  .521540641785D-07
     .989424232279D+00  .262250000000D+03  .462420208126D+00 -.795283126734D-08
    -.119647840956D-09  .100000000000D+01  .196400000000D+04  .000000000000D+00
     .240000000000D+01  .000000000000D+00 -.107102096081D-07  .770000000000D+02
     .576060000000D+05  .400000000000D+01
17 17  8 27 18  0  0.0 -.160861760378D-03  .227373675443D-11  .000000000000D+00
     .210000000000D+02 -.212500000000D+02  .403623955415D-08 -.157386223297D+01
    -.834465026855D-06  .117703905562D-01  .947341322899D-05  .515367939568D+04
     .648000000000D+05  .195577740669D-06  .113442810761D+01  .216066837311D-06
     .980579256948D+00  .204218750000D+03 -.184622299448D+01 -.772282168652D-08
     .230009580822D-09  .100000000000D+01  .196400000000D+04  .000000000000D+00
     .240000000000D+01  .000000000000D+00 -.111758708954D-07  .210000000000D+02
     .576060000000D+05  .400000000000D+01
18 17  8 27 18  0  0.0  .628133770078D-03  .909494701773D-12  .000000000000D+00
     .500000000000D+02 -.364375000000D+02  .570738059245D-08 -.110007625733D+00
    -.182911753654D-05  .181255231146D-01  .720657408237D-05  .515362427139D+04
     .648000000000D+05 -.188127160072D-06  .313280648171D+01  .894069671631D-07
     .926284057460D+00  .225281250000D+03 -.178488411070D+01 -.899216027385D-08
    -.266796827444D-09  .100000000000D+01  .196400000000D+04  .000000000000D+00
     .240000000000D+01  .000000000000D+00 -.111758708954D-07  .500000000000D+02
     .576060000000D+05  .400000000000D+01
19 17  8 27 18  0  0.0 -.489095225930D-03  .181898940355D-11  .000000000000D+00
     .600000000000D+02 -.298750000000D+02  .409124184522D-08  .142180828478D+01
    -.149756669998D-05  .101229767315D-01  .979937613010D-05  .515368194199D+04
     .648000000000D+05 -.229105353355D-06  .118205634468D+01 -.558793544769D-08
     .977881093267D+00  .202687500000D+03  .105736785911D+01 -.792640159501D-08
     .200365488884D-09  .100000000000D+01  .196400000000D+04  .000000000000D+00
     .240000000000D+01  .000000000000D+00 -.153668224812D-07  .600000000000D+02
     .576060000000D+05  .400000000000D+01
20 17  8 27 18  0  0.0  .484673306346D-03  .125055521494D-11  .000000000000D+00
     .510000000000D+02 -.380000000000D+02  .550344352623D-08 -.253387268471D+01
    -.192038714886D-05  .448241306003D-02  .642240047455D-05  .515372703934D+04
     .648000000000D+05  .428408384323D-07  .308161769514D+01  .800937414169D-07
     .927664385037D+00  .237125000000D+03  .164899665954D+01 -.848571060676D-08
    -.192508018732D-09  .100000000000D+01  .196400000000D+04  .000000000000D+00
     .240000000000D+01  .000000000000D+00 -.838190317154D-08  .510000000000D+02
     .576060000000D+05  .400000000000D+01
21 17  8 27 18  0  0.0 -.483974348754D-03  .295585778076D-11  .000000000000D+00
     .120000000000D+02 -.437500000000D+00  .549380026740D-08  .789269051950D+00
    -.819563865662D-07  .239661365049D-01  .678002834320D-05  .515361645508D+04
     .648000000000D+05 -.402331352234D-06  .209288686262D+01 -.763684511185D-07
     .940624942450D+00  .247687500000D+03 -.164667653729D+01 -.898001691089D-08
     .173578658819D-09  .100000000000D+01  .196400000000D+04  .000000000000D+00
     .240000000000D+01  .000000000000D+00 -.977888703346D-08  .120000000000D+02
     .576060000000D+05  .400000000000D+01
22 17  8 27 18  0  0.0 -.102174002677D-03 -.126192389871D-10  .000000000000D+00
     .210000000000D+02 -.345937500000D+02  .552237288614D-08 -.220526542652D+01
    -.179558992386D-05  .732636672910D-02  .712834298611D-05  .515374373436D+04
     .648000000000D+05  .651925802231D-07  .313249600076D+01  .894069671631D-07
     .924363013418D+00  .218718750000D+03 -.168383653636D+01 -.841177895579D-08
    -.219294848796D-09  .100000000000D+01  .196400000000D+04  .000000000000D+00
     .240000000000D+01  .000000000000D+00 -.176951289177D-07  .210000000000D+02
     .576060000000D+05  .400000000000D+01
23 17  8 27 18  0  0.0 -.216755084693D-03 -.341060513165D-12  .000000000000D+00
     .530000000000D+02  .433750000000D+02  .466055127352D-08 -.295420546092D+01
     .203959643841D-05  .118812482106D-01  .103190541267D-04  .515369988632D+04
     .648000000000D+05  .186264514923D-08 -.206498205721D+01 -.197440385818D-06
     .944014592397D+00  .168218750000D+03 -.242577609081D+01 -.793318759196D-08
    -.112504686272D-09  .100000000000D+01  .196400000000D+04  .000000000000D+00
     .240000000000D+01  .000000000000D+00 -.204890966415D-07  .530000000000D+02
     .576060000000D+05  .400000000000D+01
